LEGION 1                
1 59625U 24081A   26201.21264585  .00001899  00000+0  99869-4 0  9997
2 59625  97.5007 278.7196 0007836 248.8094 111.2303 15.16862954122548
LEGION 2                
1 59626U 24081B   26201.24310386  .00001937  00000+0  10183-3 0  9996
2 59626  97.5007 278.8463 0010621 214.4006 145.6540 15.16842732122552
LEGION 3                
1 60452U 24146A   26201.21382663  .00001302  00000+0  80917-4 0  9990
2 60452  45.0013 213.4878 0007719   1.5851 358.5051 15.15671515107034
LEGION 4                
1 60453U 24146B   26201.27937727  .00002078  00000+0  12085-3 0  9995
2 60453  45.0022 305.0037 0009280 145.0618 215.0871 15.15701517105895
LEGION 5                
1 62900U 25025A   26201.21346788  .00001856  00000+0  10935-3 0  9991
2 62900  45.0013 124.3146 0007831 315.0953  44.9291 15.15720625 79502
LEGION 6                
1 62901U 25025B   26200.88309833  .00001891  00000+0  11118-3 0  9997
2 62901  45.0031  35.2331 0010634 300.7496  59.2335 15.15707688 80590
