{"fetched_at":"2026-07-20T18:29:33.342Z","source":"https://celestrak.org/NORAD/elements/gp.php?NAME=LEGION&FORMAT=JSON","constellation":"maxar-legion","records":[{"OBJECT_NAME":"LEGION 1","OBJECT_ID":"2024-081A","EPOCH":"2026-07-20T05:06:12.601440","CLASSIFICATION_TYPE":"U","MEAN_MOTION":15.16862954,"ECCENTRICITY":0.00078367,"INCLINATION":97.5007,"RA_OF_ASC_NODE":278.7196,"ARG_OF_PERICENTER":248.8094,"MEAN_ANOMALY":111.2303,"EPHEMERIS_TYPE":0,"NORAD_CAT_ID":59625,"ELEMENT_SET_NO":999,"REV_AT_EPOCH":12254,"BSTAR":0.000099869021,"MEAN_MOTION_DOT":0.00001899,"MEAN_MOTION_DDOT":0},{"OBJECT_NAME":"LEGION 2","OBJECT_ID":"2024-081B","EPOCH":"2026-07-20T05:50:04.173504","CLASSIFICATION_TYPE":"U","MEAN_MOTION":15.16842732,"ECCENTRICITY":0.00106211,"INCLINATION":97.5007,"RA_OF_ASC_NODE":278.8463,"ARG_OF_PERICENTER":214.4006,"MEAN_ANOMALY":145.654,"EPHEMERIS_TYPE":0,"NORAD_CAT_ID":59626,"ELEMENT_SET_NO":999,"REV_AT_EPOCH":12255,"BSTAR":0.00010183089,"MEAN_MOTION_DOT":0.00001937,"MEAN_MOTION_DDOT":0},{"OBJECT_NAME":"LEGION 3","OBJECT_ID":"2024-146A","EPOCH":"2026-07-20T05:07:54.620832","CLASSIFICATION_TYPE":"U","MEAN_MOTION":15.15671515,"ECCENTRICITY":0.00077191,"INCLINATION":45.0013,"RA_OF_ASC_NODE":213.4878,"ARG_OF_PERICENTER":1.5851,"MEAN_ANOMALY":358.5051,"EPHEMERIS_TYPE":0,"NORAD_CAT_ID":60452,"ELEMENT_SET_NO":999,"REV_AT_EPOCH":10703,"BSTAR":0.00008091718,"MEAN_MOTION_DOT":0.00001302,"MEAN_MOTION_DDOT":0},{"OBJECT_NAME":"LEGION 4","OBJECT_ID":"2024-146B","EPOCH":"2026-07-20T06:42:18.196128","CLASSIFICATION_TYPE":"U","MEAN_MOTION":15.15701517,"ECCENTRICITY":0.00092804,"INCLINATION":45.0022,"RA_OF_ASC_NODE":305.0037,"ARG_OF_PERICENTER":145.0618,"MEAN_ANOMALY":215.0871,"EPHEMERIS_TYPE":0,"NORAD_CAT_ID":60453,"ELEMENT_SET_NO":999,"REV_AT_EPOCH":10589,"BSTAR":0.00012085266,"MEAN_MOTION_DOT":0.00002078,"MEAN_MOTION_DDOT":0},{"OBJECT_NAME":"LEGION 5","OBJECT_ID":"2025-025A","EPOCH":"2026-07-20T05:07:23.624832","CLASSIFICATION_TYPE":"U","MEAN_MOTION":15.15720625,"ECCENTRICITY":0.00078311,"INCLINATION":45.0013,"RA_OF_ASC_NODE":124.3146,"ARG_OF_PERICENTER":315.0953,"MEAN_ANOMALY":44.9291,"EPHEMERIS_TYPE":0,"NORAD_CAT_ID":62900,"ELEMENT_SET_NO":999,"REV_AT_EPOCH":7950,"BSTAR":0.0001093472,"MEAN_MOTION_DOT":0.00001856,"MEAN_MOTION_DDOT":0},{"OBJECT_NAME":"LEGION 6","OBJECT_ID":"2025-025B","EPOCH":"2026-07-19T21:11:39.695712","CLASSIFICATION_TYPE":"U","MEAN_MOTION":15.15707688,"ECCENTRICITY":0.00106341,"INCLINATION":45.0031,"RA_OF_ASC_NODE":35.2331,"ARG_OF_PERICENTER":300.7496,"MEAN_ANOMALY":59.2335,"EPHEMERIS_TYPE":0,"NORAD_CAT_ID":62901,"ELEMENT_SET_NO":999,"REV_AT_EPOCH":8059,"BSTAR":0.00011117683,"MEAN_MOTION_DOT":0.00001891,"MEAN_MOTION_DDOT":0}]}
